ONEWEB-0694             
1 56722U 23068N   24089.37021104  .00000070  00000+0  14890-3 0  9993
2 56722  87.9128  29.9164 0002256  91.3383 268.8006 13.16595852 45219
ONEWEB-0696             
1 56723U 23068P   24089.46636052  .00000089  00000+0  20154-3 0  9998
2 56723  87.8997  60.3613 0001803  73.9210 286.2119 13.15548762 42902
ONEWEB-0703             
1 56724U 23068Q   24089.47586080 -.00000055  00000+0 -18051-3 0  9993
2 56724  87.8996  60.3808 0001777  41.8705 318.2560 13.15547859 42790
